[{"name":"LEMUR-1","l1":"1 40044U 14033AL  26183.65402083  .00002142  00000+0  25034-3 0  9996","l2":"2 40044  97.7894 333.1168 0048828  28.9592 331.4316 14.85304077647768","cat":"other"},{"name":"LEMUR-2-GREENBERG","l1":"1 42837U 17042N   26183.76750222  .00017912  00000+0  58454-3 0  9997","l2":"2 42837  97.3822   4.3251 0007327 312.9409  47.1217 15.31811302490773","cat":"other"},{"name":"LEMUR-2-ANDIS","l1":"1 42838U 17042P   26183.76043832  .00022937  00000+0  66599-3 0  9992","l2":"2 42838  97.3679   4.5569 0007228 310.6779  49.3836 15.35476861490843","cat":"other"},{"name":"LEMUR-2-MONSON","l1":"1 42839U 17042Q   26183.74475329  .00016104  00000+0  58314-3 0  9996","l2":"2 42839  97.4084   4.2506 0005199 302.4292  57.6444 15.28463603490543","cat":"other"},{"name":"LEMUR-2-FURIAUS","l1":"1 42840U 17042R   26183.44524626  .00020324  00000+0  68474-3 0  9997","l2":"2 42840  97.3770   1.9246 0007035  18.4944 341.6552 15.30756022490549","cat":"other"},{"name":"LEMUR-2-PETERG","l1":"1 42841U 17042S   26183.75413438  .00026861  00000+0  80220-3 0  9995","l2":"2 42841  97.3990   8.8153 0002756 281.0943  78.9990 15.34578984490829","cat":"other"},{"name":"LEMUR-2-DEMBITZ","l1":"1 42842U 17042T   26183.46488201  .00018968  00000+0  63943-3 0  9996","l2":"2 42842  97.3821   4.9796 0005474 331.2654  28.8285 15.30760619490689","cat":"other"},{"name":"LEMUR-2-ZACHARY","l1":"1 42845U 17042W   26183.80391711  .00049150  00000+0  82452-3 0  9999","l2":"2 42845  97.3582  15.7860 0002308 312.5959  47.5099 15.51664987491621","cat":"other"},{"name":"LEMUR-2-AMANDA-SVANTE","l1":"1 48269U 21034B   26183.67936370  .00031780  00000+0  92804-3 0  9994","l2":"2 48269  97.5757 262.3826 0003813 170.9854 189.1458 15.35250832283439","cat":"other"},{"name":"LEMUR-2-SPECIAL-K","l1":"1 48273U 21034F   26183.66914588  .00202530  00000+0  16759-2 0  9992","l2":"2 48273  97.5645 271.7015 0005439 222.2477 137.8366 15.69627128284119","cat":"other"},{"name":"LEMUR-2-EMBRIONOVIS","l1":"1 56970U 23084AQ  26183.36371881  .00015319  00000+0  41231-3 0  9993","l2":"2 56970  97.6312 328.1499 0007549 257.5694 102.4705 15.37934897170010","cat":"other"},{"name":"LEMUR-2-DEVERILL-M-T","l1":"1 57391U 23100F   26183.56773895  .00026718  00000+0  65917-3 0  9995","l2":"2 57391  99.4457 226.7754 0005011 352.1145   8.0015 15.40525966163610","cat":"other"},{"name":"LEMUR-2-BASS","l1":"1 58259U 23174D   26183.70626475  .00018988  00000+0  42298-3 0  9994","l2":"2 58259  97.3849 268.6402 0008071 115.4068 244.8016 15.43620450147759","cat":"other"},{"name":"LEMUR-2-JK0903EM1407","l1":"1 58336U 23174CJ  26183.68172471  .00027865  00000+0  45572-3 0  9991","l2":"2 58336  97.3930 274.5964 0004634  73.4600 286.7161 15.52485286148136","cat":"other"},{"name":"LEMUR-2-MJR092620","l1":"1 58340U 23174CN  26183.50717895  .00021474  00000+0  44953-3 0  9994","l2":"2 58340  97.3980 273.8231 0006365  71.8734 288.3207 15.45448019148019","cat":"other"},{"name":"LEMUR-2-NIMBUS2000","l1":"1 58899U 24022A   26183.54051242  .00023509  00000+0  57718-3 0  9991","l2":"2 58899  97.4088  33.7389 0009881  69.3006 290.9299 15.40633822134631","cat":"other"},{"name":"LEMUR-2-VALHALLA","l1":"1 58900U 24022B   26183.54069101  .00016719  00000+0  41808-3 0  9995","l2":"2 58900  97.4086  33.7200 0010390  65.0713 295.1611 15.40141147134638","cat":"other"},{"name":"LEMUR-2-CAEL","l1":"1 58903U 24022E   26183.53739264  .00018231  00000+0  43627-3 0  9993","l2":"2 58903  97.4070  34.6798 0008454  52.0014 308.1995 15.41477067134706","cat":"other"},{"name":"LEMUR-2-JOHNNYTRUONG","l1":"1 59146U 24043BA  26183.40661382  .00045845  00000+0  53210-3 0  9997","l2":"2 59146  97.5387 336.0648 0004628 130.9750 229.1908 15.61639664130418","cat":"other"},{"name":"LEMUR-2-TOMATOKECHUP","l1":"1 60471U 24149D   26183.67547330  .00011363  00000+0  32266-3 0  9998","l2":"2 60471  97.3796 265.7643 0002699 145.5081 214.6338 15.36355061104540","cat":"other"},{"name":"LEMUR-2-STELLA","l1":"1 60533U 24149BT  26183.17109079  .00013479  00000+0  78522-3 0  9991","l2":"2 60533  97.6740 265.6937 0001148 101.5384 258.5975 15.12128587102763","cat":"other"},{"name":"LEMUR-2-MARHISYAM","l1":"1 60536U 24149BW  26183.48794242  .00011348  00000+0  67230-3 0  9997","l2":"2 60536  97.6884 266.4769 0003268  90.7390 269.4214 15.11560020102799","cat":"other"},{"name":"LEMUR-2-AHMED-ASRAR","l1":"1 60576U 24149DN  26183.50719042  .00013895  00000+0  78865-3 0  9994","l2":"2 60576  97.7010 268.6488 0000514 328.7349  31.3850 15.13059697102883","cat":"other"},{"name":"LEMUR-2-LLOYD","l1":"1 60577U 24149DP  26183.48883884  .00011920  00000+0  74606-3 0  9994","l2":"2 60577  97.6750 264.6282 0005228 101.9069 258.2746 15.09540030102705","cat":"other"},{"name":"LEMUR-2-SQUIRRELCOMM","l1":"1 60578U 24149DQ  26183.45837329  .00007094  00000+0  47354-3 0  9992","l2":"2 60578  97.6704 264.3223 0005220  14.8025 345.3354 15.07322444102701","cat":"other"},{"name":"LEMUR-2-SIERRINI","l1":"1 60579U 24149DR  26183.51453875  .00014106  00000+0  84074-3 0  9992","l2":"2 60579  97.6844 266.1769 0006366 123.5088 236.6750 15.11275305102778","cat":"other"},{"name":"LEMUR-2-WILSON","l1":"1 62694U 25009CP  26183.48714325  .00003046  00000+0  28214-3 0  9999","l2":"2 62694  97.7021 261.6834 0002908  15.7604 344.3707 14.95230365 79649","cat":"other"},{"name":"LEMUR-2-STAR-FOX","l1":"1 62696U 25009CR  26183.47577647  .00008884  00000+0  66947-3 0  9994","l2":"2 62696  97.6947 264.9756 0004028  80.7159 279.4522 15.02703717 79859","cat":"other"},{"name":"LEMUR-2-ARIANNA","l1":"1 62699U 25009CU  26183.20788418  .00008846  00000+0  66677-3 0  9996","l2":"2 62699  97.6888 264.4724 0004353  85.8139 274.3583 15.02696305 79812","cat":"other"},{"name":"LEMUR-2-ALISIA","l1":"1 62706U 25009DB  26183.64899786  .00009818  00000+0  73362-3 0  9993","l2":"2 62706  97.6944 265.7127 0003127 169.1629 190.9664 15.02999059102488","cat":"other"}]